{"type": "FeatureCollection", "features": [ {"type": "Feature", "properties": {"norad_id": 39019, "name": "PLEIADES 1B", "group": "resource", "lat": -17.931291689400243, "lon": 76.31744568786718, "alt_km": 703.0106155088861, "timestamp": "2025-12-27T05:29:38.851091+00:00", "meta": {"OBJECT_NAME": "PLEIADES 1B", "OBJECT_ID": "2012-068A", "EPOCH": "2025-12-26T22:59:28.690944", "MEAN_MOTION": 14.58565211, "ECCENTRICITY": 0.00011576, "INCLINATION": 98.1773, "RA_OF_ASC_NODE": 73.3839, "ARG_OF_PERICENTER": 87.5222, "MEAN_ANOMALY": 272.611, "EPHEMERIS_TYPE": 0, "CLASSIFICATION_TYPE": "U", "NORAD_CAT_ID": 39019, "ELEMENT_SET_NO": 999, "REV_AT_EPOCH": 69574, "BSTAR": 6.6424733e-05, "MEAN_MOTION_DOT": 2.63e-06, "MEAN_MOTION_DDOT": 0}, "tle": {"line1": "1 39019U 12068A   25360.95797096  .00000263  00000+0  66425-4 0  9994", "line2": "2 39019  98.1773  73.3839 0001157  87.5222 272.6110 14.58565211695740"}}, "geometry": {"type": "Point", "coordinates": [76.31744568786718, -17.931291689400243]}}, {"type": "Feature", "properties": {"norad_id": 39030, "name": "GOKTURK 2", "group": "resource", "lat": -11.227559633207731, "lon": -156.29360236275477, "alt_km": 648.9810816073268, "timestamp": "2025-12-27T05:29:38.851101+00:00", "meta": {"OBJECT_NAME": "GOKTURK 2", "OBJECT_ID": "2012-073A", "EPOCH": "2025-12-26T23:02:03.465312", "MEAN_MOTION": 14.75311843, "ECCENTRICITY": 0.00014899, "INCLINATION": 97.6887, "RA_OF_ASC_NODE": 201.9139, "ARG_OF_PERICENTER": 105.8674, "MEAN_ANOMALY": 254.27, "EPHEMERIS_TYPE": 0, "CLASSIFICATION_TYPE": "U", "NORAD_CAT_ID": 39030, "ELEMENT_SET_NO": 999, "REV_AT_EPOCH": 69911, "BSTAR": 0.00014731783, "MEAN_MOTION_DOT": 9.51e-06, "MEAN_MOTION_DDOT": 0}, "tle": {"line1": "1 39030U 12073A   25360.95976233  .00000951  00000+0  14732-3 0  9992", "line2": "2 39030  97.6887 201.9139 0001489 105.8674 254.2700 14.75311843699113"}}, "geometry": {"type": "Point", "coordinates": [-156.29360236275477, -11.227559633207731]}}, {"type": "Feature", "properties": {"norad_id": 39084, "name": "LANDSAT 8", "group": "resource", "lat": 74.44352129104995, "lon": 37.867551669281845, "alt_km": 694.6732718282819, "timestamp": "2025-12-27T05:29:38.851112+00:00", "meta": {"OBJECT_NAME": "LANDSAT 8", "OBJECT_ID": "2013-008A", "EPOCH": "2025-12-26T22:33:03.712320", "MEAN_MOTION": 14.57116961, "ECCENTRICITY": 0.00010551, "INCLINATION": 98.2054, "RA_OF_ASC_NODE": 68.8023, "ARG_OF_PERICENTER": 94.3005, "MEAN_ANOMALY": 265.8314, "EPHEMERIS_TYPE": 0, "CLASSIFICATION_TYPE": "U", "NORAD_CAT_ID": 39084, "ELEMENT_SET_NO": 999, "REV_AT_EPOCH": 67281, "BSTAR": 0.00011890466, "MEAN_MOTION_DOT": 4.91e-06, "MEAN_MOTION_DDOT": 0}, "tle": {"line1": "1 39084U 13008A   25360.93962630  .00000491  00000+0  11890-3 0  9995", "line2": "2 39084  98.2054  68.8023 0001055  94.3005 265.8314 14.57116961672817"}}, "geometry": {"type": "Point", "coordinates": [37.867551669281845, 74.44352129104995]}}, {"type": "Feature", "properties": {"norad_id": 39086, "name": "SARAL", "group": "resource", "lat": -53.471146918740956, "lon": -6.748440370417861, "alt_km": 791.3632845219863, "timestamp": "2025-12-27T05:29:38.851122+00:00", "meta": {"OBJECT_NAME": "SARAL", "OBJECT_ID": "2013-009A", "EPOCH": "2025-12-26T23:22:33.777984", "MEAN_MOTION": 14.32762113, "ECCENTRICITY": 0.00029491, "INCLINATION": 98.5504, "RA_OF_ASC_NODE": 184.7186, "ARG_OF_PERICENTER": 82.0092, "MEAN_ANOMALY": 278.1426, "EPHEMERIS_TYPE": 0, "CLASSIFICATION_TYPE": "U", "NORAD_CAT_ID": 39086, "ELEMENT_SET_NO": 999, "REV_AT_EPOCH": 67094, "BSTAR": 7.5241043e-05, "MEAN_MOTION_DOT": 1.61e-06, "MEAN_MOTION_DDOT": 0}, "tle": {"line1": "1 39086U 13009A   25360.97400206  .00000161  00000+0  75241-4 0  9993", "line2": "2 39086  98.5504 184.7186 0002949  82.0092 278.1426 14.32762113670945"}}, "geometry": {"type": "Point", "coordinates": [-6.748440370417861, -53.471146918740956]}}, {"type": "Feature", "properties": {"norad_id": 39150, "name": "GAOFEN-1", "group": "resource", "lat": 48.79763426180661, "lon": -99.20819205959587, "alt_km": 624.8610194382727, "timestamp": "2025-12-27T05:29:38.851133+00:00", "meta": {"OBJECT_NAME": "GAOFEN-1", "OBJECT_ID": "2013-018A", "EPOCH": "2025-12-26T22:24:02.775744", "MEAN_MOTION": 14.76503615, "ECCENTRICITY": 0.00185682, "INCLINATION": 97.9305, "RA_OF_ASC_NODE": 71.34, "ARG_OF_PERICENTER": 100.0592, "MEAN_ANOMALY": 260.2714, "EPHEMERIS_TYPE": 0, "CLASSIFICATION_TYPE": "U", "NORAD_CAT_ID": 39150, "ELEMENT_SET_NO": 999, "REV_AT_EPOCH": 68282, "BSTAR": 8.9475905e-05, "MEAN_MOTION_DOT": 5.74e-06, "MEAN_MOTION_DDOT": 0}, "tle": {"line1": "1 39150U 13018A   25360.93336546  .00000574  00000+0  89476-4 0  9999", "line2": "2 39150  97.9305  71.3400 0018568 100.0592 260.2714 14.76503615682829"}}, "geometry": {"type": "Point", "coordinates": [-99.20819205959587, 48.79763426180661]}}, {"type": "Feature", "properties": {"norad_id": 39160, "name": "VNREDSAT 1", "group": "resource", "lat": -49.829871168277506, "lon": 65.5045009924094, "alt_km": 684.7242809861618, "timestamp": "2025-12-27T05:29:38.851143+00:00", "meta": {"OBJECT_NAME": "VNREDSAT 1", "OBJECT_ID": "2013-021B", "EPOCH": "2025-12-26T23:10:01.696224", "MEAN_MOTION": 14.64943148, "ECCENTRICITY": 0.00011667, "INCLINATION": 97.935, "RA_OF_ASC_NODE": 55.74, "ARG_OF_PERICENTER": 84.0881, "MEAN_ANOMALY": 276.0456, "EPHEMERIS_TYPE": 0, "CLASSIFICATION_TYPE": "U", "NORAD_CAT_ID": 39160, "ELEMENT_SET_NO": 999, "REV_AT_EPOCH": 67507, "BSTAR": 0.00011706211, "MEAN_MOTION_DOT": 5.81e-06, "MEAN_MOTION_DDOT": 0}, "tle": {"line1": "1 39160U 13021B   25360.96529741  .00000581  00000+0  11706-3 0  9996", "line2": "2 39160  97.9350  55.7400 0001166  84.0881 276.0456 14.64943148675077"}}, "geometry": {"type": "Point", "coordinates": [65.5045009924094, -49.829871168277506]}}, {"type": "Feature", "properties": {"norad_id": 39227, "name": "ARIRANG-5 (KOMPSAT-5)", "group": "resource", "lat": -69.41082098954834, "lon": -153.80444408147298, "alt_km": 560.7942085814875, "timestamp": "2025-12-27T05:29:38.851153+00:00", "meta": {"OBJECT_NAME": "ARIRANG-5 (KOMPSAT-5)", "OBJECT_ID": "2013-042A", "EPOCH": "2025-12-26T23:25:24.660768", "MEAN_MOTION": 15.04493304, "ECCENTRICITY": 0.00029551, "INCLINATION": 97.6168, "RA_OF_ASC_NODE": 185.0778, "ARG_OF_PERICENTER": 32.7012, "MEAN_ANOMALY": 327.4396, "EPHEMERIS_TYPE": 0, "CLASSIFICATION_TYPE": "U", "NORAD_CAT_ID": 39227, "ELEMENT_SET_NO": 999, "REV_AT_EPOCH": 67796, "BSTAR": 0.00019417613, "MEAN_MOTION_DOT": 2.657e-05, "MEAN_MOTION_DDOT": 0}, "tle": {"line1": "1 39227U 13042A   25360.97597987  .00002657  00000+0  19418-3 0  9995", "line2": "2 39227  97.6168 185.0778 0002955  32.7012 327.4396 15.04493304677966"}}, "geometry": {"type": "Point", "coordinates": [-153.80444408147298, -69.41082098954834]}}, {"type": "Feature", "properties": {"norad_id": 39418, "name": "SKYSAT-A", "group": "resource", "lat": -45.43694973042375, "lon": 58.588486881377136, "alt_km": 547.2755731445677, "timestamp": "2025-12-27T05:29:38.851163+00:00", "meta": {"OBJECT_NAME": "SKYSAT-A", "OBJECT_ID": "2013-066C", "EPOCH": "2025-12-26T16:59:19.383072", "MEAN_MOTION": 15.11703125, "ECCENTRICITY": 0.00217778, "INCLINATION": 97.4086, "RA_OF_ASC_NODE": 50.4912, "ARG_OF_PERICENTER": 186.7849, "MEAN_ANOMALY": 173.309, "EPHEMERIS_TYPE": 0, "CLASSIFICATION_TYPE": "U", "NORAD_CAT_ID": 39418, "ELEMENT_SET_NO": 999, "REV_AT_EPOCH": 66241, "BSTAR": 0.00022929716, "MEAN_MOTION_DOT": 3.862e-05, "MEAN_MOTION_DDOT": 0}, "tle": {"line1": "1 39418U 13066C   25360.70786323  .00003862  00000+0  22930-3 0  9990", "line2": "2 39418  97.4086  50.4912 0021777 186.7849 173.3090 15.11703125662417"}}, "geometry": {"type": "Point", "coordinates": [58.588486881377136, -45.43694973042375]}}, {"type": "Feature", "properties": {"norad_id": 39419, "name": "DUBAISAT-2", "group": "resource", "lat": -70.68646471322042, "lon": 13.105776723705441, "alt_km": 541.9419116407953, "timestamp": "2025-12-27T05:29:38.851174+00:00", "meta": {"OBJECT_NAME": "DUBAISAT-2", "OBJECT_ID": "2013-066D", "EPOCH": "2025-12-26T23:26:42.658368", "MEAN_MOTION": 15.08492535, "ECCENTRICITY": 0.00097304, "INCLINATION": 97.447, "RA_OF_ASC_NODE": 350.9465, "ARG_OF_PERICENTER": 265.0435, "MEAN_ANOMALY": 94.9683, "EPHEMERIS_TYPE": 0, "CLASSIFICATION_TYPE": "U", "NORAD_CAT_ID": 39419, "ELEMENT_SET_NO": 999, "REV_AT_EPOCH": 66041, "BSTAR": 0.00022715817, "MEAN_MOTION_DOT": 3.483e-05, "MEAN_MOTION_DDOT": 0}, "tle": {"line1": "1 39419U 13066D   25360.97688262  .00003483  00000+0  22716-3 0  9994", "line2": "2 39419  97.4470 350.9465 0009730 265.0435  94.9683 15.08492535660413"}}, "geometry": {"type": "Point", "coordinates": [13.105776723705441, -70.68646471322042]}}, {"type": "Feature", "properties": {"norad_id": 39574, "name": "GPM-CORE", "group": "resource", "lat": -11.623518217891899, "lon": -10.326346353889063, "alt_km": 432.5442368569875, "timestamp": "2025-12-27T05:29:38.851184+00:00", "meta": {"OBJECT_NAME": "GPM-CORE", "OBJECT_ID": "2014-009C", "EPOCH": "2025-12-26T22:26:47.926752", "MEAN_MOTION": 15.4469316, "ECCENTRICITY": 0.00090031, "INCLINATION": 64.9729, "RA_OF_ASC_NODE": 165.1418, "ARG_OF_PERICENTER": 251.8221, "MEAN_ANOMALY": 108.194, "EPHEMERIS_TYPE": 0, "CLASSIFICATION_TYPE": "U", "NORAD_CAT_ID": 39574, "ELEMENT_SET_NO": 999, "REV_AT_EPOCH": 67120, "BSTAR": 0.00022809936, "MEAN_MOTION_DOT": 0.00010478, "MEAN_MOTION_DDOT": 0}, "tle": {"line1": "1 39574U 14009C   25360.93527693  .00010478  00000+0  22810-3 0  9997", "line2": "2 39574  64.9729 165.1418 0009003 251.8221 108.1940 15.44693160671204"}}, "geometry": {"type": "Point", "coordinates": [-10.326346353889063, -11.623518217891899]}}]}